[{"OBJECT_NAME":"AMAZONIA 1","OBJECT_ID":"2021-015A","EPOCH":"2026-03-09T17:05:01.705920","MEAN_MOTION":14.40836291,"ECCENTRICITY":0.00039353,"INCLINATION":98.4264,"RA_OF_ASC_NODE":142.7385,"ARG_OF_PERICENTER":123.8493,"MEAN_ANOMALY":236.3071,"EPHEMERIS_TYPE":0,"CLASSIFICATION_TYPE":"U","NORAD_CAT_ID":47699,"ELEMENT_SET_NO":999,"REV_AT_EPOCH":26432,"BSTAR":0.00010973552,"MEAN_MOTION_DOT":3.08e-6,"MEAN_MOTION_DDOT":0},{"OBJECT_NAME":"FENGYUN 1C DEB","OBJECT_ID":"1999-025AJX","EPOCH":"2026-03-09T09:15:11.934720","MEAN_MOTION":14.56238994,"ECCENTRICITY":0.00791576,"INCLINATION":98.8343,"RA_OF_ASC_NODE":207.1118,"ARG_OF_PERICENTER":243.8257,"MEAN_ANOMALY":178.7664,"EPHEMERIS_TYPE":0,"CLASSIFICATION_TYPE":"U","NORAD_CAT_ID":30533,"ELEMENT_SET_NO":999,"REV_AT_EPOCH":99081,"BSTAR":0.0037076688,"MEAN_MOTION_DOT":0.00017093,"MEAN_MOTION_DDOT":0}]
